{"type": "FeatureCollection", "features": [{"type": "Feature", "properties": {"norad_id": 22490, "name": "SCD 1", "group": "resource", "lat": 20.394358171158817, "lon": -12.649178852164608, "alt_km": 747.4624032697466, "timestamp": "2025-12-10T04:57:29.261930+00:00", "meta": {"OBJECT_NAME": "SCD 1", "OBJECT_ID": "1993-009B", "EPOCH": "2025-12-09T14:32:21.488928", "MEAN_MOTION": 14.45995775, "ECCENTRICITY": 0.004173, "INCLINATION": 24.9704, "RA_OF_ASC_NODE": 298.0332, "ARG_OF_PERICENTER": 291.7211, "MEAN_ANOMALY": 229.7743, "EPHEMERIS_TYPE": 0, "CLASSIFICATION_TYPE": "U", "NORAD_CAT_ID": 22490, "ELEMENT_SET_NO": 999, "REV_AT_EPOCH": 73364, "BSTAR": 0.00017156, "MEAN_MOTION_DOT": 8.13e-06, "MEAN_MOTION_DDOT": 0}, "tle": {"line1": "1 22490U 93009B   25343.60580427  .00000813  00000+0  17156-3 0  9991", "line2": "2 22490  24.9704 298.0332 0041730 291.7211 229.7743 14.45995775733643"}}, "geometry": {"type": "Point", "coordinates": [-12.649178852164608, 20.394358171158817]}}, {"type": "Feature", "properties": {"norad_id": 25397, "name": "TECHSAT 1B (GO-32)", "group": "resource", "lat": 32.42461492821648, "lon": 153.13274857681148, "alt_km": 808.512169158741, "timestamp": "2025-12-10T04:57:29.261955+00:00", "meta": {"OBJECT_NAME": "TECHSAT 1B (GO-32)", "OBJECT_ID": "1998-043D", "EPOCH": "2025-12-09T16:28:08.761728", "MEAN_MOTION": 14.24375772, "ECCENTRICITY": 0.0002137, "INCLINATION": 98.9917, "RA_OF_ASC_NODE": 326.8279, "ARG_OF_PERICENTER": 62.2471, "MEAN_ANOMALY": 297.8923, "EPHEMERIS_TYPE": 0, "CLASSIFICATION_TYPE": "U", "NORAD_CAT_ID": 25397, "ELEMENT_SET_NO": 999, "REV_AT_EPOCH": 42435, "BSTAR": 0.00010194, "MEAN_MOTION_DOT": 1.89e-06, "MEAN_MOTION_DDOT": 0}, "tle": {"line1": "1 25397U 98043D   25343.68621252  .00000189  00000+0  10194-3 0  9994", "line2": "2 25397  98.9917 326.8279 0002137  62.2471 297.8923 14.24375772424353"}}, "geometry": {"type": "Point", "coordinates": [153.13274857681148, 32.42461492821648]}}, {"type": "Feature", "properties": {"norad_id": 25504, "name": "SCD 2", "group": "resource", "lat": 24.949439703255514, "lon": -109.51635970872779, "alt_km": 746.4254479472347, "timestamp": "2025-12-10T04:57:29.261971+00:00", "meta": {"OBJECT_NAME": "SCD 2", "OBJECT_ID": "1998-060A", "EPOCH": "2025-12-09T18:41:38.027040", "MEAN_MOTION": 14.45420959, "ECCENTRICITY": 0.0016592, "INCLINATION": 24.9931, "RA_OF_ASC_NODE": 160.1538, "ARG_OF_PERICENTER": 281.9313, "MEAN_ANOMALY": 100.7711, "EPHEMERIS_TYPE": 0, "CLASSIFICATION_TYPE": "U", "NORAD_CAT_ID": 25504, "ELEMENT_SET_NO": 999, "REV_AT_EPOCH": 43289, "BSTAR": 0.0001259, "MEAN_MOTION_DOT": 6.33e-06, "MEAN_MOTION_DDOT": 0}, "tle": {"line1": "1 25504U 98060A   25343.77891235  .00000633  00000+0  12590-3 0  9999", "line2": "2 25504  24.9931 160.1538 0016592 281.9313 100.7711 14.45420959432896"}}, "geometry": {"type": "Point", "coordinates": [-109.51635970872779, 24.949439703255514]}}, {"type": "Feature", "properties": {"norad_id": 25757, "name": "DLR-TUBSAT", "group": "resource", "lat": 67.8683404162678, "lon": 170.63952255965137, "alt_km": 711.3749795309568, "timestamp": "2025-12-10T04:57:29.261984+00:00", "meta": {"OBJECT_NAME": "DLR-TUBSAT", "OBJECT_ID": "1999-029B", "EPOCH": "2025-12-09T16:52:35.211648", "MEAN_MOTION": 14.52355963, "ECCENTRICITY": 0.0013728, "INCLINATION": 98.656, "RA_OF_ASC_NODE": 328.1233, "ARG_OF_PERICENTER": 202.2533, "MEAN_ANOMALY": 157.8067, "EPHEMERIS_TYPE": 0, "CLASSIFICATION_TYPE": "U", "NORAD_CAT_ID": 25757, "ELEMENT_SET_NO": 999, "REV_AT_EPOCH": 40574, "BSTAR": 8.0486e-05, "MEAN_MOTION_DOT": 2.8e-06, "MEAN_MOTION_DDOT": 0}, "tle": {"line1": "1 25757U 99029B   25343.70318532  .00000280  00000+0  80486-4 0  9990", "line2": "2 25757  98.6560 328.1233 0013728 202.2533 157.8067 14.52355963405749"}}, "geometry": {"type": "Point", "coordinates": [170.63952255965137, 67.8683404162678]}}, {"type": "Feature", "properties": {"norad_id": 25994, "name": "TERRA", "group": "resource", "lat": 79.95521634099734, "lon": -91.69455956378502, "alt_km": 680.3558503827962, "timestamp": "2025-12-10T04:57:29.261996+00:00", "meta": {"OBJECT_NAME": "TERRA", "OBJECT_ID": "1999-068A", "EPOCH": "2025-12-09T19:09:34.428096", "MEAN_MOTION": 14.60897092, "ECCENTRICITY": 0.0003584, "INCLINATION": 97.9752, "RA_OF_ASC_NODE": 35.5908, "ARG_OF_PERICENTER": 100.1248, "MEAN_ANOMALY": 10.0634, "EPHEMERIS_TYPE": 0, "CLASSIFICATION_TYPE": "U", "NORAD_CAT_ID": 25994, "ELEMENT_SET_NO": 999, "REV_AT_EPOCH": 38195, "BSTAR": 0.00017702, "MEAN_MOTION_DOT": 8.22e-06, "MEAN_MOTION_DDOT": 0}, "tle": {"line1": "1 25994U 99068A   25343.79831514  .00000822  00000+0  17702-3 0  9997", "line2": "2 25994  97.9752  35.5908 0003584 100.1248  10.0634 14.60897092381952"}}, "geometry": {"type": "Point", "coordinates": [-91.69455956378502, 79.95521634099734]}}, {"type": "Feature", "properties": {"norad_id": 27004, "name": "MAROC-TUBSAT", "group": "resource", "lat": -9.80698096279954, "lon": -29.103448878573932, "alt_km": 999.4898298266935, "timestamp": "2025-12-10T04:57:29.262007+00:00", "meta": {"OBJECT_NAME": "MAROC-TUBSAT", "OBJECT_ID": "2001-056D", "EPOCH": "2025-12-09T17:38:08.402208", "MEAN_MOTION": 13.70252674, "ECCENTRICITY": 0.0019088, "INCLINATION": 99.7912, "RA_OF_ASC_NODE": 152.1272, "ARG_OF_PERICENTER": 268.1363, "MEAN_ANOMALY": 115.929, "EPHEMERIS_TYPE": 0, "CLASSIFICATION_TYPE": "U", "NORAD_CAT_ID": 27004, "ELEMENT_SET_NO": 999, "REV_AT_EPOCH": 20024, "BSTAR": 4.6196e-05, "MEAN_MOTION_DOT": -6e-08, "MEAN_MOTION_DDOT": 0}, "tle": {"line1": "1 27004U 01056D   25343.73481947 -.00000006  00000+0  46196-4 0  9991", "line2": "2 27004  99.7912 152.1272 0019088 268.1363 115.9290 13.70252674200249"}}, "geometry": {"type": "Point", "coordinates": [-29.103448878573932, -9.80698096279954]}}, {"type": "Feature", "properties": {"norad_id": 27424, "name": "AQUA", "group": "resource", "lat": -36.795096687457075, "lon": -48.607465129137736, "alt_km": 694.315049040777, "timestamp": "2025-12-10T04:57:29.262018+00:00", "meta": {"OBJECT_NAME": "AQUA", "OBJECT_ID": "2002-022A", "EPOCH": "2025-12-09T21:02:12.331104", "MEAN_MOTION": 14.61799118, "ECCENTRICITY": 9.79e-05, "INCLINATION": 98.4034, "RA_OF_ASC_NODE": 304.7091, "ARG_OF_PERICENTER": 114.1879, "MEAN_ANOMALY": 272.7648, "EPHEMERIS_TYPE": 0, "CLASSIFICATION_TYPE": "U", "NORAD_CAT_ID": 27424, "ELEMENT_SET_NO": 999, "REV_AT_EPOCH": 25561, "BSTAR": 0.0003959, "MEAN_MOTION_DOT": 1.927e-05, "MEAN_MOTION_DDOT": 0}, "tle": {"line1": "1 27424U 02022A   25343.87653161  .00001927  00000+0  39590-3 0  9996", "line2": "2 27424  98.4034 304.7091 0000979 114.1879 272.7648 14.61799118255611"}}, "geometry": {"type": "Point", "coordinates": [-48.607465129137736, -36.795096687457075]}}, {"type": "Feature", "properties": {"norad_id": 28051, "name": "IRS-P6 (RESOURCESAT-1)", "group": "resource", "lat": 59.973783965441875, "lon": 10.251088881668226, "alt_km": 793.1581401935728, "timestamp": "2025-12-10T04:57:29.262030+00:00", "meta": {"OBJECT_NAME": "IRS-P6 (RESOURCESAT-1)", "OBJECT_ID": "2003-046A", "EPOCH": "2025-12-09T21:06:52.126272", "MEAN_MOTION": 14.36072391, "ECCENTRICITY": 0.0063953, "INCLINATION": 98.2176, "RA_OF_ASC_NODE": 24.4189, "ARG_OF_PERICENTER": 189.2833, "MEAN_ANOMALY": 343.7471, "EPHEMERIS_TYPE": 0, "CLASSIFICATION_TYPE": "U", "NORAD_CAT_ID": 28051, "ELEMENT_SET_NO": 999, "REV_AT_EPOCH": 15335, "BSTAR": 6.7267e-05, "MEAN_MOTION_DOT": 1.59e-06, "MEAN_MOTION_DDOT": 0}, "tle": {"line1": "1 28051U 03046A   25343.87976998  .00000159  00000+0  67267-4 0  9995", "line2": "2 28051  98.2176  24.4189 0063953 189.2833 343.7471 14.36072391153351"}}, "geometry": {"type": "Point", "coordinates": [10.251088881668226, 59.973783965441875]}}, {"type": "Feature", "properties": {"norad_id": 28220, "name": "SHIYAN-1 (SY-1)", "group": "resource", "lat": 2.5370000971345155, "lon": -134.0526052053799, "alt_km": 488.1672868124251, "timestamp": "2025-12-10T04:57:29.262040+00:00", "meta": {"OBJECT_NAME": "SHIYAN-1 (SY-1)", "OBJECT_ID": "2004-012A", "EPOCH": "2025-12-09T10:53:45.983616", "MEAN_MOTION": 15.28007061, "ECCENTRICITY": 0.00058493, "INCLINATION": 97.8933, "RA_OF_ASC_NODE": 44.7984, "ARG_OF_PERICENTER": 338.3085, "MEAN_ANOMALY": 21.7905, "EPHEMERIS_TYPE": 0, "CLASSIFICATION_TYPE": "U", "NORAD_CAT_ID": 28220, "ELEMENT_SET_NO": 999, "REV_AT_EPOCH": 18206, "BSTAR": 0.00068257487, "MEAN_MOTION_DOT": 0.00018604, "MEAN_MOTION_DDOT": 0}, "tle": {"line1": "1 28220U 04012A   25343.45400444  .00018604  00000+0  68257-3 0  9992", "line2": "2 28220  97.8933  44.7984 0005849 338.3085  21.7905 15.28007061182068"}}, "geometry": {"type": "Point", "coordinates": [-134.0526052053799, 2.5370000971345155]}}, {"type": "Feature", "properties": {"norad_id": 28376, "name": "AURA", "group": "resource", "lat": 75.40390985264617, "lon": 148.603486385328, "alt_km": 682.146969094636, "timestamp": "2025-12-10T04:57:29.262052+00:00", "meta": {"OBJECT_NAME": "AURA", "OBJECT_ID": "2004-026A", "EPOCH": "2025-12-09T20:16:27.130944", "MEAN_MOTION": 14.60936693, "ECCENTRICITY": 0.0001189, "INCLINATION": 98.3181, "RA_OF_ASC_NODE": 294.0579, "ARG_OF_PERICENTER": 93.6887, "MEAN_ANOMALY": 266.4449, "EPHEMERIS_TYPE": 0, "CLASSIFICATION_TYPE": "U", "NORAD_CAT_ID": 28376, "ELEMENT_SET_NO": 999, "REV_AT_EPOCH": 13856, "BSTAR": 0.00039943, "MEAN_MOTION_DOT": 1.909e-05, "MEAN_MOTION_DDOT": 0}, "tle": {"line1": "1 28376U 04026A   25343.84475846  .00001909  00000+0  39943-3 0  9990", "line2": "2 28376  98.3181 294.0579 0001189  93.6887 266.4449 14.60936693138569"}}, "geometry": {"type": "Point", "coordinates": [148.603486385328, 75.40390985264617]}}]}